{"fetched_at":"2026-07-13T07:47:56.614Z","source":"https://celestrak.org/NORAD/elements/gp.php?GROUP=planet&FORMAT=JSON","constellation":"superdove","records":[{"OBJECT_NAME":"FLOCK 4G-25","OBJECT_ID":"2025-009AP","EPOCH":"2026-07-12T18:24:55.501056","CLASSIFICATION_TYPE":"U","MEAN_MOTION":15.2997972,"ECCENTRICITY":0.0002224,"INCLINATION":97.4019,"RA_OF_ASC_NODE":275.7393,"ARG_OF_PERICENTER":168.3966,"MEAN_ANOMALY":191.7326,"EPHEMERIS_TYPE":0,"NORAD_CAT_ID":62646,"ELEMENT_SET_NO":999,"REV_AT_EPOCH":8283,"BSTAR":0.00028046,"MEAN_MOTION_DOT":0.00008065,"MEAN_MOTION_DDOT":0},{"OBJECT_NAME":"FLOCK 4G-23","OBJECT_ID":"2025-009AQ","EPOCH":"2026-07-12T16:26:46.819968","CLASSIFICATION_TYPE":"U","MEAN_MOTION":15.34627495,"ECCENTRICITY":0.0003188,"INCLINATION":97.3916,"RA_OF_ASC_NODE":275.3674,"ARG_OF_PERICENTER":176.2851,"MEAN_ANOMALY":183.8416,"EPHEMERIS_TYPE":0,"NORAD_CAT_ID":62647,"ELEMENT_SET_NO":999,"REV_AT_EPOCH":8283,"BSTAR":0.0007773,"MEAN_MOTION_DOT":0.00026064,"MEAN_MOTION_DDOT":0},{"OBJECT_NAME":"FLOCK 4G-34","OBJECT_ID":"2025-009AT","EPOCH":"2026-07-12T16:56:32.485920","CLASSIFICATION_TYPE":"U","MEAN_MOTION":15.29745546,"ECCENTRICITY":0.000214,"INCLINATION":97.3969,"RA_OF_ASC_NODE":275.1678,"ARG_OF_PERICENTER":168.2197,"MEAN_ANOMALY":191.9094,"EPHEMERIS_TYPE":0,"NORAD_CAT_ID":62650,"ELEMENT_SET_NO":999,"REV_AT_EPOCH":8281,"BSTAR":0.00024331,"MEAN_MOTION_DOT":0.00006935,"MEAN_MOTION_DDOT":0},{"OBJECT_NAME":"FLOCK 4G-21","OBJECT_ID":"2025-009AU","EPOCH":"2026-07-12T18:15:13.197888","CLASSIFICATION_TYPE":"U","MEAN_MOTION":15.32763589,"ECCENTRICITY":0.0002952,"INCLINATION":97.3994,"RA_OF_ASC_NODE":276.2129,"ARG_OF_PERICENTER":197.3434,"MEAN_ANOMALY":162.7708,"EPHEMERIS_TYPE":0,"NORAD_CAT_ID":62651,"ELEMENT_SET_NO":999,"REV_AT_EPOCH":8287,"BSTAR":0.00091122,"MEAN_MOTION_DOT":0.00028833,"MEAN_MOTION_DDOT":0},{"OBJECT_NAME":"FLOCK 4G-31","OBJECT_ID":"2025-009AV","EPOCH":"2026-07-12T16:04:56.318592","CLASSIFICATION_TYPE":"U","MEAN_MOTION":15.29548421,"ECCENTRICITY":0.0001649,"INCLINATION":97.3971,"RA_OF_ASC_NODE":275.1044,"ARG_OF_PERICENTER":162.3844,"MEAN_ANOMALY":197.7453,"EPHEMERIS_TYPE":0,"NORAD_CAT_ID":62652,"ELEMENT_SET_NO":999,"REV_AT_EPOCH":8280,"BSTAR":0.00022232,"MEAN_MOTION_DOT":0.00006291,"MEAN_MOTION_DDOT":0},{"OBJECT_NAME":"FLOCK 4G-4","OBJECT_ID":"2025-009BC","EPOCH":"2026-07-12T17:05:20.586048","CLASSIFICATION_TYPE":"U","MEAN_MOTION":15.32036145,"ECCENTRICITY":0.0004456,"INCLINATION":97.3955,"RA_OF_ASC_NODE":274.9496,"ARG_OF_PERICENTER":200.0812,"MEAN_ANOMALY":160.0255,"EPHEMERIS_TYPE":0,"NORAD_CAT_ID":62659,"ELEMENT_SET_NO":999,"REV_AT_EPOCH":14041,"BSTAR":0.00082706,"MEAN_MOTION_DOT":0.00025567,"MEAN_MOTION_DDOT":0},{"OBJECT_NAME":"FLOCK 4G-6","OBJECT_ID":"2025-009BD","EPOCH":"2026-07-12T18:58:39.129888","CLASSIFICATION_TYPE":"U","MEAN_MOTION":15.29952265,"ECCENTRICITY":0.0002665,"INCLINATION":97.3947,"RA_OF_ASC_NODE":275.0759,"ARG_OF_PERICENTER":210.8225,"MEAN_ANOMALY":149.2859,"EPHEMERIS_TYPE":0,"NORAD_CAT_ID":62660,"ELEMENT_SET_NO":999,"REV_AT_EPOCH":14041,"BSTAR":0.00024233,"MEAN_MOTION_DOT":0.00006951,"MEAN_MOTION_DDOT":0},{"OBJECT_NAME":"FLOCK 4G-2","OBJECT_ID":"2025-009BE","EPOCH":"2026-07-12T18:50:13.485984","CLASSIFICATION_TYPE":"U","MEAN_MOTION":15.30300301,"ECCENTRICITY":0.0003486,"INCLINATION":97.4014,"RA_OF_ASC_NODE":275.7085,"ARG_OF_PERICENTER":211.5166,"MEAN_ANOMALY":148.5867,"EPHEMERIS_TYPE":0,"NORAD_CAT_ID":62661,"ELEMENT_SET_NO":999,"REV_AT_EPOCH":14044,"BSTAR":0.00026791,"MEAN_MOTION_DOT":0.00007777,"MEAN_MOTION_DDOT":0},{"OBJECT_NAME":"FLOCK 4G-5","OBJECT_ID":"2025-009BG","EPOCH":"2026-07-12T18:44:12.765984","CLASSIFICATION_TYPE":"U","MEAN_MOTION":15.30881733,"ECCENTRICITY":0.0003232,"INCLINATION":97.403,"RA_OF_ASC_NODE":276.1016,"ARG_OF_PERICENTER":189.2168,"MEAN_ANOMALY":170.9014,"EPHEMERIS_TYPE":0,"NORAD_CAT_ID":62663,"ELEMENT_SET_NO":999,"REV_AT_EPOCH":8285,"BSTAR":0.00021985,"MEAN_MOTION_DOT":0.00006484,"MEAN_MOTION_DDOT":0},{"OBJECT_NAME":"FLOCK 4G-1","OBJECT_ID":"2025-009BK","EPOCH":"2026-07-12T04:20:37.760640","CLASSIFICATION_TYPE":"U","MEAN_MOTION":15.30149951,"ECCENTRICITY":0.00037092,"INCLINATION":97.4026,"RA_OF_ASC_NODE":275.0856,"ARG_OF_PERICENTER":209.9007,"MEAN_ANOMALY":150.2022,"EPHEMERIS_TYPE":0,"NORAD_CAT_ID":62666,"ELEMENT_SET_NO":999,"REV_AT_EPOCH":8273,"BSTAR":0.00021997472,"MEAN_MOTION_DOT":0.00006342,"MEAN_MOTION_DDOT":0},{"OBJECT_NAME":"FLOCK 4G-14","OBJECT_ID":"2025-009BL","EPOCH":"2026-07-12T17:37:42.733632","CLASSIFICATION_TYPE":"U","MEAN_MOTION":15.29703778,"ECCENTRICITY":0.0003909,"INCLINATION":97.403,"RA_OF_ASC_NODE":275.4355,"ARG_OF_PERICENTER":202.9881,"MEAN_ANOMALY":157.1185,"EPHEMERIS_TYPE":0,"NORAD_CAT_ID":62667,"ELEMENT_SET_NO":999,"REV_AT_EPOCH":8280,"BSTAR":0.00022999,"MEAN_MOTION_DOT":0.00006543,"MEAN_MOTION_DDOT":0},{"OBJECT_NAME":"FLOCK 4G-10","OBJECT_ID":"2025-009BP","EPOCH":"2026-07-12T19:27:51.304608","CLASSIFICATION_TYPE":"U","MEAN_MOTION":15.29807775,"ECCENTRICITY":0.000345,"INCLINATION":97.3927,"RA_OF_ASC_NODE":274.8122,"ARG_OF_PERICENTER":222.7577,"MEAN_ANOMALY":137.3396,"EPHEMERIS_TYPE":0,"NORAD_CAT_ID":62670,"ELEMENT_SET_NO":999,"REV_AT_EPOCH":14045,"BSTAR":0.00026066,"MEAN_MOTION_DOT":0.0000745,"MEAN_MOTION_DDOT":0},{"OBJECT_NAME":"FLOCK 4G-36","OBJECT_ID":"2025-009BU","EPOCH":"2026-07-12T19:19:54.730848","CLASSIFICATION_TYPE":"U","MEAN_MOTION":15.29780125,"ECCENTRICITY":0.0004048,"INCLINATION":97.402,"RA_OF_ASC_NODE":275.4274,"ARG_OF_PERICENTER":208.9659,"MEAN_ANOMALY":151.1358,"EPHEMERIS_TYPE":0,"NORAD_CAT_ID":62675,"ELEMENT_SET_NO":999,"REV_AT_EPOCH":8281,"BSTAR":0.00026235,"MEAN_MOTION_DOT":0.00007493,"MEAN_MOTION_DDOT":0},{"OBJECT_NAME":"FLOCK 4G-15","OBJECT_ID":"2025-009BX","EPOCH":"2026-07-12T17:55:54.723360","CLASSIFICATION_TYPE":"U","MEAN_MOTION":15.29869769,"ECCENTRICITY":0.0004304,"INCLINATION":97.4019,"RA_OF_ASC_NODE":275.5122,"ARG_OF_PERICENTER":206.1712,"MEAN_ANOMALY":153.9311,"EPHEMERIS_TYPE":0,"NORAD_CAT_ID":62678,"ELEMENT_SET_NO":999,"REV_AT_EPOCH":14045,"BSTAR":0.00025852,"MEAN_MOTION_DOT":0.00007403,"MEAN_MOTION_DDOT":0},{"OBJECT_NAME":"FLOCK 4G-30","OBJECT_ID":"2025-009BY","EPOCH":"2026-07-12T18:17:29.491296","CLASSIFICATION_TYPE":"U","MEAN_MOTION":15.33834124,"ECCENTRICITY":0.000414,"INCLINATION":97.392,"RA_OF_ASC_NODE":275.0384,"ARG_OF_PERICENTER":203.6394,"MEAN_ANOMALY":156.4659,"EPHEMERIS_TYPE":0,"NORAD_CAT_ID":62679,"ELEMENT_SET_NO":999,"REV_AT_EPOCH":14046,"BSTAR":0.000941,"MEAN_MOTION_DOT":0.00030809,"MEAN_MOTION_DDOT":0},{"OBJECT_NAME":"FLOCK 4G-18","OBJECT_ID":"2025-009BZ","EPOCH":"2026-07-12T18:34:14.081376","CLASSIFICATION_TYPE":"U","MEAN_MOTION":15.32095204,"ECCENTRICITY":0.0006034,"INCLINATION":97.4013,"RA_OF_ASC_NODE":275.4492,"ARG_OF_PERICENTER":219.0499,"MEAN_ANOMALY":141.0308,"EPHEMERIS_TYPE":0,"NORAD_CAT_ID":62680,"ELEMENT_SET_NO":999,"REV_AT_EPOCH":14045,"BSTAR":0.00092382,"MEAN_MOTION_DOT":0.00028639,"MEAN_MOTION_DDOT":0}]}
